
HAWK-11B                
1 62379U 24247C   25043.19442324  .00012183  00000+0  56679-3 0  9999
2 62379  45.0097  76.8319 0002847 313.5313  46.5330 15.20031166  8169
2024-247D               
1 62380U 24247D   25042.79869905  .00010280  00000+0  48062-3 0  9997
2 62380  44.9987  78.8741 0002781 288.1280  71.9297 15.20007861  8108
HAWK-11C                
1 62381U 24247E   25042.79970242  .00012469  00000+0  58000-3 0  9999
2 62381  44.9970  78.8756 0003251 286.8673  73.1851 15.20014957  8105
HAWK-11A                
1 62382U 24247F   25042.79983003  .00012307  00000+0  57275-3 0  9993
2 62382  44.9844  78.7617 0002290 296.2661  63.7983 15.20008710  8106
LIZZIESAT-2             
1 62383U 24247G   25042.79616306  .00009126  00000+0  42779-3 0  9991
2 62383  44.9984  78.8540 0003261 285.0646  74.9873 15.20038573  8108
ICEYE-X49               
1 62384U 24247H   25042.79576879  .00009198  00000+0  63357-3 0  9996
2 62384  44.9992  82.1391 0001620 339.4772  20.6037 15.06177251  8067
2024-247J               
1 62385U 24247J   25042.49914160  .00022125  00000+0  97056-3 0  9991
2 62385  44.9968  80.0170 0003220 287.5691  72.4838 15.21655605  8069
TOMORROW-S4             
1 62386U 24247K   25042.49778599  .00012005  00000+0  57246-3 0  9999
2 62386  44.9946  80.8289 0002541  14.7323 345.3630 15.19187284  8053
2024-247L               
1 62387U 24247L   25042.49703857  .00024023  00000+0  10482-2 0  9998
2 62387  44.9964  80.0039 0002997 289.9007  70.1551 15.21795987  8063
GITAI-SC1               
1 62388U 24247M   25043.14840583  .00008672  00000+0  41536-3 0  9997
2 62388  45.0001  77.2560 0000435   4.1976 355.8907 15.19345791  8151
ICEYE-X47               
1 62389U 24247N   25042.79677813  .00010611  00000+0  72899-3 0  9994
2 62389  44.9973  82.1378 0002223 351.3163   8.7672 15.06142079  8065
LASARSAT                
1 62391U 24247Q   25042.47932794  .00019933  00000+0  91218-3 0  9996
2 62391  44.9912  80.6898 0003806  29.0879 331.0213 15.20261263  8057
TOMORROW-S3             
1 62392U 24247R   25042.49539415  .00023867  00000+0  11103-2 0  9997
2 62392  44.9962  80.8186 0002546  33.6697 326.4344 15.19602446  8057
2024-247S               
1 62393U 24247S   25042.79578889  .00023672  00000+0  10564-2 0  9993
2 62393  44.9913  78.8266 0004695  41.5226 318.6010 15.21029790  8100
CROCUBE                 
1 62394U 24247T   25042.48116390  .00020695  00000+0  94678-3 0  9996
2 62394  44.9908  80.7006 0004269  33.5679 326.5471 15.20248487  8057
2024-247U               
1 62395U 24247U   25042.49837954  .00021465  00000+0  94108-3 0  9998
2 62395  44.9962  80.0118 0003067 288.4186  71.6361 15.21690660  8066
2024-247V               
1 62396U 24247V   25042.49758241  .00023357  00000+0  10210-2 0  9993
2 62396  44.9959  80.0071 0003060 288.5119  71.5429 15.21747209  8067
2024-247W               
1 62397U 24247W   25043.13539847  .00027242  00000+0  11516-2 0  9992
2 62397  44.9932  76.3194 0002199 320.1940  39.8780 15.22811220  8164
2024-247X               
1 62398U 24247X   25043.13449970  .00029106  00000+0  12242-2 0  9998
2 62398  44.9944  76.3149 0002012 326.6408  33.4346 15.22952301  8166
2024-247Y               
1 62399U 24247Y   25042.43353725  .00020877  00000+0  91763-3 0  9995
2 62399  44.9964  80.3733 0003193 286.9250  73.1280 15.21618658  8056
XCUBE-1                 
1 62400U 24247Z   25042.46164857  .00008597  00000+0  40275-3 0  9994
2 62400  44.9958  80.5711 0004837 282.2787  77.7552 15.20121394  8057
CTC-0                   
1 62401U 24247AA  25043.09496568  .00017151  00000+0  76338-3 0  9997
2 62401  44.9940  76.8462 0004618 288.4750  71.5629 15.21302391  8152
DJIBOUTI-1B             
1 62402U 24247AB  25042.48915454  .00023572  00000+0  10209-2 0  9998
2 62402  44.9909  79.9313 0003946 298.2460  61.8023 15.22055669  8061
2024-247AC              
1 62403U 24247AC  25042.48955950  .00017169  00000+0  79890-3 0  9991
2 62403  44.9919  80.7597 0003844  30.2055 329.9046 15.19774820  8053
2024-247AD              
1 62404U 24247AD  25042.49789567  .00022615  00000+0  98959-3 0  9991
2 62404  44.9969  80.0093 0003056 287.7149  72.3398 15.21729813  8066
2024-247AE              
1 62405U 24247AE  25042.15820417  .00024326  00000+0  10490-2 0  9999
2 62405  44.9907  81.6871 0003923 298.5473  61.5012 15.22187635  7426
STRIX-2                 
1 62406U 24248A   25043.11200057  .00008112  00000+0  63932-3 0  9995
2 62406  97.5698   1.3527 0019443 188.3811 171.7091 15.00876508  7871
STARLINK-11444 [DTC]    
1 62409U 24249A   25042.95579918  .00000575  00000+0  61692-5 0  9993
2 62409  43.0008   3.3009 0001341 277.6910  82.3808 15.77854335  8021
STARLINK-11493 [DTC]    
1 62410U 24249B   25043.16667824 -.01100279  00000+0 -91283-2 0  9994
2 62410  42.9994   2.0096 0001336 287.1721 194.2372 15.71993795  8103
STARLINK-11453 [DTC]    
1 62411U 24249C   25042.94604094  .00003920  00000+0  25392-4 0  9992
2 62411  42.9983   3.2178 0001210 278.6074  81.4659 15.77844150  7754
STARLINK-11462 [DTC]    
1 62412U 24249D   25042.87785611  .00003041  00000+0  20343-4 0  9995
2 62412  42.9996   3.5624 0001636 259.9476 100.1210 15.77848079  8014
STARLINK-11441 [DTC]    
1 62413U 24249E   25042.93627264 -.00005863  00000+0 -30808-4 0  9995
2 62413  42.9987   3.1412 0001635 283.6030  76.4658 15.77882432  7757
STARLINK-11445 [DTC]    
1 62414U 24249F   25042.61489715  .00000986  00000+0  85344-5 0  9993
2 62414  42.9970   5.0309 0002064 281.2307  78.8331 15.77860377  8023
STARLINK-11355 [DTC]    
1 62415U 24249G   25042.92651667 -.00002929  00000+0 -13964-4 0  9994
2 62415  43.0026   3.0600 0001269 256.9138 103.1590 15.77870317  8021
STARLINK-11446 [DTC]    
1 62416U 24249H   25042.98494979 -.00004963  00000+0 -25674-4 0  9993
2 62416  42.9985   2.6314 0000618 166.3062 193.7825 15.77861242  8087
STARLINK-11428 [DTC]    
1 62417U 24249J   25042.91667824  .00026740  00000+0  21144-3 0  9990
2 62417  43.0000   3.2898 0001346 266.7674 330.3713 15.70814539  6011
STARLINK-11447 [DTC]    
1 62418U 24249K   25043.16059601 -.00059860  00000+0 -35048-3 0  9996
2 62418  43.0001   1.3619 0000598 200.5976 159.4870 15.77412658  8055
STARLINK-11439 [DTC]    
1 62419U 24249L   25042.91667824 -.01102376  00000+0 -82573-2 0  9997
2 62419  42.9990   2.9362 0001281 261.9513 116.1901 15.74356770  6064
STARLINK-11434 [DTC]    
1 62420U 24249M   25042.94369448 -.00002296  00000+0 -14403-4 0  9991
2 62420  42.9994   3.1986 0001801 273.1998  86.8664 15.70838750  8021
STARLINK-11461 [DTC]    
1 62421U 24249N   25042.93308415 -.00000920  00000+0 -36841-5 0  9991
2 62421  42.9987   3.1115 0000723 226.0896 133.9912 15.70833978  8021
STARLINK-32692          
1 62422U 24249P   25042.60823034 -.00001350  00000+0 -25064-4 0  9997
2 62422  43.0071  14.7203 0001387 294.8393  65.2319 15.40694779  7866
STARLINK-32680          
1 62423U 24249Q   25042.27749986  .00001297  00000+0  38312-4 0  9992
2 62423  43.0046  17.4252 0001260 269.6197  90.4516 15.40688982  7807
STARLINK-32638          
1 62424U 24249R   25043.20081168 -.00005493  00000+0 -12445-3 0  9990
2 62424  43.0019  12.3215 0001107 271.9207  88.1523 15.40672407  7671
STARLINK-32283          
1 62425U 24249S   25042.32664463  .00000075  00000+0  90542-5 0  9993
2 62425  43.0037  16.9310 0001485 274.9846  85.0841 15.40694228  7819
STARLINK-32676          
1 62426U 24249T   25043.19402847  .00005191  00000+0  13131-3 0  9997
2 62426  43.0027  12.2655 0000576 277.1862  82.8929 15.40731666  7992
STARLINK-32659          
1 62427U 24249U   25042.95042323  .00000859  00000+0  27820-4 0  9997
2 62427  42.9996  13.8834 0001193 273.0277  87.0443 15.40706896  7965
STARLINK-32614          
1 62428U 24249V   25042.64407083  .00002446  00000+0  65803-4 0  9999
2 62428  43.0021  15.0113 0001489 277.4674  82.6013 15.40697253  7867
STARLINK-32418          
1 62429U 24249W   25042.98164755 -.00000365  00000+0 -14606-5 0  9999
2 62429  43.0052  13.2475 0001969 281.4754  78.5882 15.40702466  7658
RESURS-P 5              
1 62430U 24250A   25043.20354454  .00006400  00000+0  20689-3 0  9996
2 62430  97.2621 332.2421 0001341  69.9198 290.2188 15.32421879  7506
STARLINK-32702          
1 62432U 24251A   25043.16711712 -.00002466  00000+0 -51684-4 0  9998
2 62432  53.1616 357.3460 0000926  87.2757 272.8354 15.39620631  8041
STARLINK-32712          
1 62433U 24251B   25043.13460486 -.00001714  00000+0 -32884-4 0  9991
2 62433  53.1623 357.1431 0001165  94.6535 265.4603 15.39624880  8043
STARLINK-32674          
1 62434U 24251C   25043.12077866 -.00006021  00000+0 -14073-3 0  9992
2 62434  53.1614 357.7664 0001387  90.3948 269.7216 15.39602504  8030
STARLINK-32711          
1 62435U 24251D   25043.14854490 -.00003206  00000+0 -70203-4 0  9991
2 62435  53.1618 357.2222 0001413  57.0585 303.0555 15.39615572  8045
STARLINK-32697          
1 62436U 24251E   25043.11115376  .00000950  00000+0  33736-4 0  9993
2 62436  53.1624 357.7036 0001335  91.7890 268.3267 15.39623117  8023
STARLINK-32693          
1 62437U 24251F   25043.16638608 -.00003173  00000+0 -69366-4 0  9997
2 62437  53.1609 354.4297 0000971  69.0886 291.0222 15.39624765  8088
STARLINK-32721          
1 62438U 24251G   25043.12996581  .00000300  00000+0  17498-4 0  9997
2 62438  53.1622 357.1079 0001352  77.7183 282.3973 15.39608902  7970
STARLINK-32709          
1 62439U 24251H   25043.11578729  .00000244  00000+0  16065-4 0  9993
2 62439  53.1606 357.7374 0000588 109.3202 250.7867 15.39632607  8028
STARLINK-32689          
1 62440U 24251J   25043.13925139 -.00002063  00000+0 -41607-4 0  9991
2 62440  53.1619 357.1701 0000564  57.0321 303.0738 15.39623090  8033
